[{"OBJECT_NAME":"STARLINK-4710","OBJECT_ID":"2022-111AC","EPOCH":"2026-03-09T19:27:39.444480","MEAN_MOTION":15.08840113,"ECCENTRICITY":0.00013588,"INCLINATION":53.2169,"RA_OF_ASC_NODE":263.6492,"ARG_OF_PERICENTER":88.0615,"MEAN_ANOMALY":272.0532,"EPHEMERIS_TYPE":0,"CLASSIFICATION_TYPE":"U","NORAD_CAT_ID":53799,"ELEMENT_SET_NO":999,"REV_AT_EPOCH":19383,"BSTAR":5.171456e-5,"MEAN_MOTION_DOT":5.35e-6,"MEAN_MOTION_DDOT":0},{"OBJECT_NAME":"STEP 2","OBJECT_ID":"1994-029A","EPOCH":"2026-03-09T19:35:47.124096","MEAN_MOTION":14.90069818,"ECCENTRICITY":0.0082455,"INCLINATION":81.9356,"RA_OF_ASC_NODE":275.268,"ARG_OF_PERICENTER":225.1907,"MEAN_ANOMALY":134.2589,"EPHEMERIS_TYPE":0,"CLASSIFICATION_TYPE":"U","NORAD_CAT_ID":23105,"ELEMENT_SET_NO":999,"REV_AT_EPOCH":70508,"BSTAR":0.00037800709,"MEAN_MOTION_DOT":3.917e-5,"MEAN_MOTION_DDOT":0}]
